CCSDS_OMM_VERS = 2.0
CREATION_DATE  = 
ORIGINATOR     = 

OBJECT_NAME    = ATLAS CENTAUR R/B
OBJECT_ID      = 1972-065B
CENTER_NAME    = EARTH
REF_FRAME      = TEME
TIME_SYSTEM    = UTC
MEAN_ELEMENT_THEORY = SGP/SGP4

EPOCH          = 2026-01-28T13:22:40.196352
MEAN_MOTION    = 14.77561904
ECCENTRICITY   = .00334274
INCLINATION    = 34.9997
RA_OF_ASC_NODE = 180.9199
ARG_OF_PERICENTER = 31.3200
MEAN_ANOMALY   = 328.9484

EPHEMERIS_TYPE = 0
CLASSIFICATION_TYPE = U
NORAD_CAT_ID   = 6155
ELEMENT_SET_NO = 999
REV_AT_EPOCH   = 83532
BSTAR          = .30642968E-3
MEAN_MOTION_DOT = .2221E-4
MEAN_MOTION_DDOT = 0

CCSDS_OMM_VERS = 2.0
CREATION_DATE  = 
ORIGINATOR     = 

OBJECT_NAME    = SL-8 R/B
OBJECT_ID      = 1975-112B
CENTER_NAME    = EARTH
REF_FRAME      = TEME
TIME_SYSTEM    = UTC
MEAN_ELEMENT_THEORY = SGP/SGP4

EPOCH          = 2026-01-29T11:31:12.933120
MEAN_MOTION    = 14.38183340
ECCENTRICITY   = .0015862
INCLINATION    = 74.0603
RA_OF_ASC_NODE = 91.0458
ARG_OF_PERICENTER = 196.7270
MEAN_ANOMALY   = 163.3363

EPHEMERIS_TYPE = 0
CLASSIFICATION_TYPE = U
NORAD_CAT_ID   = 8459
ELEMENT_SET_NO = 999
REV_AT_EPOCH   = 62623
BSTAR          = .12364E-3
MEAN_MOTION_DOT = .35E-5
MEAN_MOTION_DDOT = 0

CCSDS_OMM_VERS = 2.0
CREATION_DATE  = 
ORIGINATOR     = 

OBJECT_NAME    = SL-3 R/B
OBJECT_ID      = 1977-057B
CENTER_NAME    = EARTH
REF_FRAME      = TEME
TIME_SYSTEM    = UTC
MEAN_ELEMENT_THEORY = SGP/SGP4

EPOCH          = 2026-01-29T11:13:37.498368
MEAN_MOTION    = 15.44335290
ECCENTRICITY   = .0008483
INCLINATION    = 97.5713
RA_OF_ASC_NODE = 199.7109
ARG_OF_PERICENTER = 68.0781
MEAN_ANOMALY   = 292.1368

EPHEMERIS_TYPE = 0
CLASSIFICATION_TYPE = U
NORAD_CAT_ID   = 10114
ELEMENT_SET_NO = 999
REV_AT_EPOCH   = 66227
BSTAR          = .39746E-3
MEAN_MOTION_DOT = .18271E-3
MEAN_MOTION_DDOT = 0

CCSDS_OMM_VERS = 2.0
CREATION_DATE  = 
ORIGINATOR     = 

OBJECT_NAME    = SEASAT 1
OBJECT_ID      = 1978-064A
CENTER_NAME    = EARTH
REF_FRAME      = TEME
TIME_SYSTEM    = UTC
MEAN_ELEMENT_THEORY = SGP/SGP4

EPOCH          = 2026-01-29T11:34:51.914784
MEAN_MOTION    = 14.46125039
ECCENTRICITY   = .0001347
INCLINATION    = 108.0168
RA_OF_ASC_NODE = 43.2168
ARG_OF_PERICENTER = 289.1172
MEAN_ANOMALY   = 70.9828

EPHEMERIS_TYPE = 0
CLASSIFICATION_TYPE = U
NORAD_CAT_ID   = 10967
ELEMENT_SET_NO = 999
REV_AT_EPOCH   = 50084
BSTAR          = .19834E-3
MEAN_MOTION_DOT = .572E-5
MEAN_MOTION_DDOT = 0

CCSDS_OMM_VERS = 2.0
CREATION_DATE  = 
ORIGINATOR     = 

OBJECT_NAME    = SL-14 R/B
OBJECT_ID      = 1979-011B
CENTER_NAME    = EARTH
REF_FRAME      = TEME
TIME_SYSTEM    = UTC
MEAN_ELEMENT_THEORY = SGP/SGP4

EPOCH          = 2026-01-29T08:15:08.923392
MEAN_MOTION    = 14.91854492
ECCENTRICITY   = .0015928
INCLINATION    = 82.5262
RA_OF_ASC_NODE = 133.8989
ARG_OF_PERICENTER = 183.6368
MEAN_ANOMALY   = 176.4739

EPHEMERIS_TYPE = 0
CLASSIFICATION_TYPE = U
NORAD_CAT_ID   = 11267
ELEMENT_SET_NO = 999
REV_AT_EPOCH   = 52291
BSTAR          = .1075E-3
MEAN_MOTION_DOT = .1113E-4
MEAN_MOTION_DDOT = 0

CCSDS_OMM_VERS = 2.0
CREATION_DATE  = 
ORIGINATOR     = 

OBJECT_NAME    = SL-8 R/B
OBJECT_ID      = 1979-089B
CENTER_NAME    = EARTH
REF_FRAME      = TEME
TIME_SYSTEM    = UTC
MEAN_ELEMENT_THEORY = SGP/SGP4

EPOCH          = 2026-01-29T11:42:23.413536
MEAN_MOTION    = 14.42324133
ECCENTRICITY   = .0016171
INCLINATION    = 74.0690
RA_OF_ASC_NODE = 163.6049
ARG_OF_PERICENTER = 341.7064
MEAN_ANOMALY   = 18.3508

EPHEMERIS_TYPE = 0
CLASSIFICATION_TYPE = U
NORAD_CAT_ID   = 11574
ELEMENT_SET_NO = 999
REV_AT_EPOCH   = 43045
BSTAR          = .15567E-3
MEAN_MOTION_DOT = .488E-5
MEAN_MOTION_DDOT = 0

CCSDS_OMM_VERS = 2.0
CREATION_DATE  = 
ORIGINATOR     = 

OBJECT_NAME    = SL-14 R/B
OBJECT_ID      = 1980-005B
CENTER_NAME    = EARTH
REF_FRAME      = TEME
TIME_SYSTEM    = UTC
MEAN_ELEMENT_THEORY = SGP/SGP4

EPOCH          = 2026-01-29T07:56:42.293184
MEAN_MOTION    = 14.90872393
ECCENTRICITY   = .0014321
INCLINATION    = 82.5167
RA_OF_ASC_NODE = 344.5586
ARG_OF_PERICENTER = 297.9770
MEAN_ANOMALY   = 61.9999

EPHEMERIS_TYPE = 0
CLASSIFICATION_TYPE = U
NORAD_CAT_ID   = 11672
ELEMENT_SET_NO = 999
REV_AT_EPOCH   = 47062
BSTAR          = .11413E-3
MEAN_MOTION_DOT = .1151E-4
MEAN_MOTION_DDOT = 0

CCSDS_OMM_VERS = 2.0
CREATION_DATE  = 
ORIGINATOR     = 

OBJECT_NAME    = SL-8 R/B
OBJECT_ID      = 1981-003B
CENTER_NAME    = EARTH
REF_FRAME      = TEME
TIME_SYSTEM    = UTC
MEAN_ELEMENT_THEORY = SGP/SGP4

EPOCH          = 2026-01-29T07:29:17.427264
MEAN_MOTION    = 15.09396233
ECCENTRICITY   = .0266066
INCLINATION    = 82.9391
RA_OF_ASC_NODE = 326.3936
ARG_OF_PERICENTER = 316.3492
MEAN_ANOMALY   = 41.6958

EPHEMERIS_TYPE = 0
CLASSIFICATION_TYPE = U
NORAD_CAT_ID   = 12139
ELEMENT_SET_NO = 999
REV_AT_EPOCH   = 30873
BSTAR          = .98696E-3
MEAN_MOTION_DOT = .37185E-3
MEAN_MOTION_DDOT = 0

CCSDS_OMM_VERS = 2.0
CREATION_DATE  = 
ORIGINATOR     = 

OBJECT_NAME    = SL-3 R/B
OBJECT_ID      = 1981-046B
CENTER_NAME    = EARTH
REF_FRAME      = TEME
TIME_SYSTEM    = UTC
MEAN_ELEMENT_THEORY = SGP/SGP4

EPOCH          = 2026-01-29T10:41:54.292992
MEAN_MOTION    = 15.40873414
ECCENTRICITY   = .0020019
INCLINATION    = 81.2339
RA_OF_ASC_NODE = 336.8153
ARG_OF_PERICENTER = 150.6744
MEAN_ANOMALY   = 209.5626

EPHEMERIS_TYPE = 0
CLASSIFICATION_TYPE = U
NORAD_CAT_ID   = 12465
ELEMENT_SET_NO = 999
REV_AT_EPOCH   = 43238
BSTAR          = .43398E-3
MEAN_MOTION_DOT = .17991E-3
MEAN_MOTION_DDOT = 0

CCSDS_OMM_VERS = 2.0
CREATION_DATE  = 
ORIGINATOR     = 

OBJECT_NAME    = SL-3 R/B
OBJECT_ID      = 1981-103B
CENTER_NAME    = EARTH
REF_FRAME      = TEME
TIME_SYSTEM    = UTC
MEAN_ELEMENT_THEORY = SGP/SGP4

EPOCH          = 2026-01-29T12:01:28.502976
MEAN_MOTION    = 15.20899094
ECCENTRICITY   = .0014178
INCLINATION    = 81.1578
RA_OF_ASC_NODE = 259.3955
ARG_OF_PERICENTER = 59.0549
MEAN_ANOMALY   = 301.2074

EPHEMERIS_TYPE = 0
CLASSIFICATION_TYPE = U
NORAD_CAT_ID   = 12904
ELEMENT_SET_NO = 999
REV_AT_EPOCH   = 96727
BSTAR          = .38798E-3
MEAN_MOTION_DOT = .8626E-4
MEAN_MOTION_DDOT = 0

CCSDS_OMM_VERS = 2.0
CREATION_DATE  = 
ORIGINATOR     = 

OBJECT_NAME    = SL-3 R/B
OBJECT_ID      = 1982-013B
CENTER_NAME    = EARTH
REF_FRAME      = TEME
TIME_SYSTEM    = UTC
MEAN_ELEMENT_THEORY = SGP/SGP4

EPOCH          = 2026-01-29T12:37:31.668672
MEAN_MOTION    = 15.21574829
ECCENTRICITY   = .0022053
INCLINATION    = 81.1723
RA_OF_ASC_NODE = 206.6533
ARG_OF_PERICENTER = 313.6088
MEAN_ANOMALY   = 46.3313

EPHEMERIS_TYPE = 0
CLASSIFICATION_TYPE = U
NORAD_CAT_ID   = 13068
ELEMENT_SET_NO = 999
REV_AT_EPOCH   = 39839
BSTAR          = .27689E-3
MEAN_MOTION_DOT = .6309E-4
MEAN_MOTION_DDOT = 0

CCSDS_OMM_VERS = 2.0
CREATION_DATE  = 
ORIGINATOR     = 

OBJECT_NAME    = SL-3 R/B
OBJECT_ID      = 1982-039B
CENTER_NAME    = EARTH
REF_FRAME      = TEME
TIME_SYSTEM    = UTC
MEAN_ELEMENT_THEORY = SGP/SGP4

EPOCH          = 2026-01-29T11:50:03.958368
MEAN_MOTION    = 15.09860251
ECCENTRICITY   = .0030062
INCLINATION    = 81.1641
RA_OF_ASC_NODE = 261.1351
ARG_OF_PERICENTER = 92.7218
MEAN_ANOMALY   = 267.7448

EPHEMERIS_TYPE = 0
CLASSIFICATION_TYPE = U
NORAD_CAT_ID   = 13154
ELEMENT_SET_NO = 999
REV_AT_EPOCH   = 37572
BSTAR          = .24333E-3
MEAN_MOTION_DOT = .4003E-4
MEAN_MOTION_DDOT = 0

