ATLAS CENTAUR R/B       
1 06155U 72065B   26028.55740968  .00002221  00000+0  30643-3 0  9994
2 06155  34.9997 180.9199 0033427  31.3200 328.9484 14.77561904835328
SL-8 R/B                
1 08459U 75112B   26029.48001080  .00000350  00000+0  12364-3 0  9998
2 08459  74.0603  91.0458 0015862 196.7270 163.3363 14.38183340626238
SL-3 R/B                
1 10114U 77057B   26029.46779512  .00018271  00000+0  39746-3 0  9993
2 10114  97.5713 199.7109 0008483  68.0781 292.1368 15.44335290662270
SEASAT 1                
1 10967U 78064A   26029.48254531  .00000572  00000+0  19834-3 0  9990
2 10967 108.0168  43.2168 0001347 289.1172  70.9828 14.46125039500844
SL-14 R/B               
1 11267U 79011B   26029.34385328  .00001113  00000+0  10750-3 0  9991
2 11267  82.5262 133.8989 0015928 183.6368 176.4739 14.91854492522918
SL-8 R/B                
1 11574U 79089B   26029.48777099  .00000488  00000+0  15567-3 0  9997
2 11574  74.0690 163.6049 0016171 341.7064  18.3508 14.42324133430454
SL-14 R/B               
1 11672U 80005B   26029.33104506  .00001151  00000+0  11413-3 0  9991
2 11672  82.5167 344.5586 0014321 297.9770  61.9999 14.90872393470623
SL-8 R/B                
1 12139U 81003B   26029.31200726  .00037185  00000+0  98696-3 0  9992
2 12139  82.9391 326.3936 0266066 316.3492  41.6958 15.09396233308731
SL-3 R/B                
1 12465U 81046B   26029.44576728  .00017991  00000+0  43398-3 0  9995
2 12465  81.2339 336.8153 0020019 150.6744 209.5626 15.40873414432381
SL-3 R/B                
1 12904U 81103B   26029.50102434  .00008626  00000+0  38798-3 0  9996
2 12904  81.1578 259.3955 0014178  59.0549 301.2074 15.20899094967274
SL-3 R/B                
1 13068U 82013B   26029.52606098  .00006309  00000+0  27689-3 0  9999
2 13068  81.1723 206.6533 0022053 313.6088  46.3313 15.21574829398394
SL-3 R/B                
1 13154U 82039B   26029.49310137  .00004003  00000+0  24333-3 0  9997
2 13154  81.1641 261.1351 0030062  92.7218 267.7448 15.09860251375725
